satname,norad_id,inclination_deg,eccentricity,mean_motion_rev_per_day,perigee_km,apogee_km,l1,l2
STARLINK-1216,45185,53.1588,0.0001122,15.30185663,474.4889265460506,476.02682835655014,1 45185U 20012H   26093.75989719 -.00000464  00000+0 -35584-5 0  9998,2 45185  53.1588 282.7792 0001122  82.1083 278.0045 15.30185663338738
STARLINK-1225,45187,53.156,8.84e-05,15.30185313,474.65308230518076,475.8647627042801,1 45187U 20012K   26093.69149847 -.00001172  00000+0 -27487-4 0  9992,2 45187  53.1560 283.5397 0000884  71.9065 288.2032 15.30185313338764
STARLINK-1230,45189,53.158,0.0001515,15.30213036,474.13786960770176,476.2144234911066,1 45189U 20012M   26093.76628469  .00000245  00000+0  20397-4 0  9995,2 45189  53.1580 283.2514 0001515  76.8333 283.2837 15.30213036336007
STARLINK-1234,45190,53.0427,0.0007577,15.66610484,363.4989883004282,373.7230102185058,1 45190U 20012N   26093.68891083  .00085440  00000+0  79650-3 0  9997,2 45190  53.0427 202.6417 0007577  10.4560 349.6611 15.66610484339798
STARLINK-1269,45197,53.1578,9.79e-05,15.30186292,474.5850521673574,475.92694651662896,1 45197U 20012V   26093.76311539 -.00002969  00000+0 -88196-4 0  9999,2 45197  53.1578 283.1237 0000979 100.9978 259.1133 15.30186292338759
STARLINK-1154,45198,53.0481,0.0004361,15.50219377,413.1220505528863,419.0479709906813,1 45198U 20012W   26093.73412929  .00105268  00000+0  18156-2 0  9993,2 45198  53.0481 250.1631 0004361 195.5045 164.5830 15.50219377339171
STARLINK-1199,45201,53.1588,0.0001134,15.30212738,474.39987049948195,475.9542021229181,1 45201U 20012Z   26093.79770701  .00005661  00000+0  20302-3 0  9992,2 45201  53.1588 267.2097 0001134  88.1233 271.9897 15.30212738339001
STARLINK-1209,45206,53.0432,0.0010428,15.55880801,392.5256402062623,406.6612748484822,1 45206U 20012AE  26093.83335647  .00197271  00000+0  27308-2 0  9999,2 45206  53.0432 212.1748 0010428 352.0510  15.1909 15.55880801  5902
STARLINK-1231,45212,53.0369,0.0003335,15.23267208,493.70108405617975,498.28612917079045,1 45212U 20012AL  26093.69585014  .00061466  00000+0  25524-2 0  9999,2 45212  53.0369 260.7531 0003335 203.5040 156.5804 15.23267208339037
STARLINK-1271,45217,53.1596,0.000146,15.30213954,474.17282228794375,476.17398892637993,1 45217U 20012AR  26093.79562410  .00006737  00000+0  23927-3 0  9996,2 45217  53.1596 267.3435 0001460  77.4708 282.6456 15.30213954339005
STARLINK-1191,45222,53.1613,0.0002366,15.32681832,466.19501545881485,469.43451983526666,1 45222U 20012AW  26093.73332366  .00105822  00000+0  32717-2 0  9992,2 45222  53.1613 242.3141 0002366 330.4227  29.6640 15.32681832339350
STARLINK-1212,45223,53.0455,0.0004036,15.57146602,393.185882365764,398.65390108876636,1 45223U 20012AX  26093.83335647  .00251999  00000+0  33095-2 0  9996,2 45223  53.0455 228.6199 0004036 263.2675 302.9064 15.57146602  5940
STARLINK-1215,45225,53.1547,0.0001576,15.30212478,474.0977301992052,476.25789502814223,1 45225U 20012AZ  26093.67124897  .00006334  00000+0  22571-3 0  9992,2 45225  53.1547 242.2632 0001576  88.6994 271.4187 15.30212478339300
STARLINK-1221,45227,53.064,0.0003784,15.42893305,434.9961552767327,440.1542862854203,1 45227U 20012BB  26093.53459626  .00024367  00000+0  55379-3 0  9998,2 45227  53.0640 151.8002 0003784  80.2972 279.8461 15.42893305340540
STARLINK-1222,45228,53.0553,0.0001939,15.51153483,412.04020855903946,414.6739499629766,1 45228U 20012BC  26093.76253182  .00042380  00000+0  71756-3 0  9995,2 45228  53.0553 222.4560 0001939 155.5697 204.5403 15.51153483339510
STARLINK-1226,45229,53.1573,0.0001299,15.3731505,453.1652894785484,454.9402923862326,1 45229U 20012BD  26093.78789953  .00026161  00000+0  71318-3 0  9991,2 45229  53.1573 241.5622 0001299  85.3391 274.7761 15.37315050339267
STARLINK-1227,45230,53.1558,7.16e-05,15.37264618,453.7130206454276,454.6914116211783,1 45230U 20012BE  26093.67149507  .00026835  00000+0  73241-3 0  9991,2 45230  53.1558 242.2724 0000716  49.8603 310.2463 15.37264618339366
STARLINK-1246,45235,53.1588,0.0001139,15.30194832,474.4499016209438,476.01109873748464,1 45235U 20012BK  26093.77254096 -.00002590  00000+0 -75351-4 0  9996,2 45235  53.1588 282.7427 0001139  78.1137 281.9992 15.30194832338813
STARLINK-1270,45237,53.0456,0.0002293,15.51355691,411.209764065271,414.3240726022186,1 45237U 20012BM  26093.74503035  .00140387  00000+0  23131-2 0  9997,2 45237  53.0456 227.4968 0002293 290.8066  69.2696 15.51355691339555
STARLINK-1279,45360,53.042,0.0002687,15.62620351,378.2753429973636,381.9072148744626,1 45360U 20019A   26093.88125506  .00187830  00000+0  20204-2 0  9991,2 45360  53.0420 336.0305 0002687 213.5254 146.5589 15.62620351334604
STARLINK-1301,45361,53.0418,0.0001245,15.68396051,362.6500617881502,364.3287267603255,1 45361U 20019B   26093.86095149  .00099222  00000+0  85918-3 0  9990,2 45361  53.0418 340.2469 0001245 277.1150  82.9724 15.68396051334551
STARLINK-1262,45366,53.1572,0.0001667,15.29364583,476.5677396069341,478.85347919991,1 45366U 20019G   26093.57041420  .00005731  00000+0  21073-3 0  9990,2 45366  53.1572  49.6829 0001667 114.6326 245.4848 15.29364583333561
STARLINK-1273,45367,53.0502,0.0004306,15.48117001,419.3065118481818,425.16299200094,1 45367U 20019H   26093.83335647  .00158768  00000+0  29236-2 0  9994,2 45367  53.0502  34.8758 0004306 105.9659  22.5094 15.48117001  5820
STARLINK-1277,45369,53.05,0.0006252,15.5344325,402.439819519921,410.9235568076001,1 45369U 20019K   26093.83335647  .00192012  00000+0  29118-2 0  9995,2 45369  53.0500  31.7769 0006252 110.5237 298.5763 15.53443250  5736
STARLINK-1281,45370,53.1596,0.0001186,15.30196549,474.4125647251449,476.03818228014006,1 45370U 20019L   26093.16448081  .00002751  00000+0  10497-3 0  9991,2 45370  53.1596  51.6052 0001186  94.9461 265.1675 15.30196549333507
STARLINK-1300,45374,53.1611,0.0001428,15.30219606,474.1778797462757,476.1351803784628,1 45374U 20019Q   26093.83974907  .00008334  00000+0  29300-3 0  9996,2 45374  53.1611  48.4745 0001428  86.6696 273.4468 15.30219606333602
STARLINK-1302,45375,53.0512,0.0003137,15.58572461,389.66404176786546,393.91149256678636,1 45375U 20019R   26093.83335647  .00196977  00000+0  24709-2 0  9997,2 45375  53.0512  30.0410 0003137  87.4151 339.0396 15.58572461  5956
STARLINK-1304,45376,53.0485,0.0003808,15.52544674,406.7147079193437,411.88401945392707,1 45376U 20019S   26093.20721212  .00101133  00000+0  16067-2 0  9994,2 45376  53.0485  31.7915 0003808 108.7099 251.4324 15.52544674333778
STARLINK-1305,45377,53.0441,0.0005029,15.57928823,390.24671014717296,397.05777576774017,1 45377U 20019T   26093.19179967  .00123713  00000+0  16065-2 0  9993,2 45377  53.0441  13.7186 0005029 167.1699 192.9441 15.57928823334039
STARLINK-1319,45379,53.0452,0.0002784,15.68506767,361.29536315772566,365.04892408889464,1 45379U 20019V   26093.80424324  .00100864  00000+0  86911-3 0  9993,2 45379  53.0452   6.1308 0002784 134.0259 226.0987 15.68506767334197
STARLINK-1266,45383,53.0498,0.0005212,15.49564794,414.4561201926208,421.5404115937881,1 45383U 20019Z   26093.83335647  .00144530  00000+0  25349-2 0  9995,2 45383  53.0498  12.7824 0005212 113.8959 163.9270 15.49564794  5887
STARLINK-1267,45384,53.0512,4.96e-05,15.54363257,403.66780031448707,404.34058872098376,1 45384U 20019AA  26093.47778855  .00105574  00000+0  15694-2 0  9995,2 45384  53.0512   7.7134 0000496  61.5608 298.5452 15.54363257334139
STARLINK-1272,45386,53.0438,0.0003931,15.61056429,381.94584806490366,387.26271526054734,1 45386U 20019AC  26093.83335647  .00165263  00000+0  18943-2 0  9996,2 45386  53.0438 347.5659 0003931 195.1513 317.9636 15.61056429  5910
STARLINK-1274,45387,53.0283,0.0002789,15.51348565,410.8937250774052,414.68170288286365,1 45387U 20019AD  26093.88311868  .00126542  00000+0  20898-2 0  9990,2 45387  53.0283 342.1389 0002789 270.7985  89.2704 15.51348565334524
STARLINK-1280,45388,53.044,0.0001768,15.68890134,360.88224543500655,363.26558401445254,1 45388U 20019AE  26093.45993005  .00099261  00000+0  84227-3 0  9997,2 45388  53.0440   0.5335 0001768 154.1828 205.9277 15.68890134334224
STARLINK-1283,45389,53.0437,6.53e-05,15.64237364,374.9919723981184,375.87398863757426,1 45389U 20019AF  26093.88681995  .00081800  00000+0  83989-3 0  9991,2 45389  53.0437 347.1127 0000653 137.5887 222.5177 15.64237364334468
STARLINK-1284,45390,53.0483,0.0004775,15.56409634,394.8224571350447,401.29372344627154,1 45390U 20019AG  26093.76076941  .00137773  00000+0  18893-2 0  9991,2 45390  53.0483   9.9590 0004775 122.0359 238.1116 15.56409634334121
STARLINK-1297,45395,53.0467,0.0006044,15.593232,385.5242352423438,393.7050934542076,1 45395U 20019AM  26093.83335647  .00177491  00000+0  21691-2 0  9996,2 45395  53.0467   8.8446 0006044 126.1865  93.8992 15.59323200  5854
STARLINK-1307,45397,53.0559,0.0001923,15.52518507,408.07039091509796,410.6808682724395,1 45397U 20019AP  26093.81465278  .00044080  00000+0  71038-3 0  9998,2 45397  53.0559  10.0257 0001923  92.1854 267.9375 15.52518507333957
STARLINK-1255,45399,53.0412,0.0001658,15.56505837,396.65542957517937,398.90232327980266,1 45399U 20019AR  26092.99778329  .00120984  00000+0  16580-2 0  9990,2 45399  53.0412 345.3549 0001658 152.9863 207.1234 15.56505837334211
STARLINK-1260,45404,53.1623,0.0001578,15.31840539,469.24040112350485,471.4017744960165,1 45404U 20019AW  26093.51041135  .00061339  00000+0  19636-2 0  9997,2 45404  53.1623  13.8781 0001578 144.8336 215.2770 15.31840539333773
STARLINK-1263,45405,53.1639,9.83e-05,15.3021661,474.4917957685748,475.83915503523895,1 45405U 20019AX  26093.76700767  .00001164  00000+0  51380-4 0  9992,2 45405  53.1639  12.7864 0000983  99.8255 260.2856 15.30216610333815
STARLINK-1265,45406,53.163,0.0002059,15.31856493,468.8634497207868,471.6836251801087,1 45406U 20019AY  26093.51346641  .00062440  00000+0  19973-2 0  9997,2 45406  53.1630  13.9667 0002059 134.9468 225.1701 15.31856493333778
